*******************************************************************************
 Revised: December 14, 2018           Neptune                               899
 
 PHYSICAL DATA (update 2018-Aug-15):
  Mass x10^24 (kg)      = 102.413         Density (g/cm^3)       =  1.638
  Equat. radius (1 bar) = 24766+-15 km    Volume, 10^10 km^3     = 6254     
  Vol. mean radius (km) = 24624+-21       Polar radius (km)      = 24342+-30
  Geometric Albedo      = 0.41            Flattening             =  0.0171
  Sid. rot. period (III)= 16.11+-0.01 hr  Sid. rot. rate (rad/s) =  0.000108338 
  Mean solar day, h     =~16.11 h         
  GM (km^3/s^2)         = 6835099.5       GM 1-sigma (km^3/s^2)  = +-10 
  Equ. grav, ge (m/s^2) = 11.15           Pol. grav, gp (m/s^2)  = 11.41+-0.03
  Visual magnitude V(1,0)= -6.87
  Vis. mag. (opposition)=  +7.84          Obliquity to orbit     = 28.32 deg
  Sidereal orbit period = 164.788501027 y Sidereal orbit period  = 60189 d
  Mean daily motion     = 0.006020076dg/d Mean orbit velocity    =  5.43 km/s 
  Atmos. temp. (1 bar)  =  72+-2 K        Escape speed (1 bar)  =  23.5 km/s     
  Aroche(ice)/Rp        =  2.98           Hill's sphere rad., Rp = 4700
                                 Perihelion  Aphelion    Mean
  Solar Constant (W/m^2)         1.54        1.49        1.51
  Maximum Planetary IR (W/m^2)   0.52        0.52        0.52
  Minimum Planetary IR (W/m^2)   0.52        0.52        0.52
*******************************************************************************
 
 
*******************************************************************************
Ephemeris / WWW_USER Wed Jun 17 12:19:18 2020 Pasadena, USA      / Horizons
*******************************************************************************
Target body name: Neptune (899)                   {source: nep081xl}
Center body name: Solar System Barycenter (0)     {source: DE431mx}
Center-site name: BODY CENTER
*******************************************************************************
Start time      : A.D. 2000-Jun-05 00:00:00.0000 TDB
Stop  time      : A.D. 2040-May-26 00:00:00.0000 TDB
Step-size       : 14400 minutes
*******************************************************************************
Center geodetic : 0.00000000,0.00000000,0.0000000 {E-lon(deg),Lat(deg),Alt(km)}
Center cylindric: 0.00000000,0.00000000,0.0000000 {E-lon(deg),Dxy(km),Dz(km)}
Center radii    : (undefined)                                                  
Output units    : AU-D
Output type     : GEOMETRIC cartesian states
Output format   : 3 (position, velocity, LT, range, range-rate)
Reference frame : Ecliptic of J2000.0
*******************************************************************************
JDTDB
   X     Y     Z
   VX    VY    VZ
   LT    RG    RR
*******************************************************************************
$$SOE
2462740.500000000 = A.D. 2030-Aug-27 00:00:00.0000 TDB 
 X = 2.926500128087966E+01 Y = 5.840777398547308E+00 Z =-7.947230899074352E-01
 VX=-6.351674871239401E-04 VY= 3.096715831080022E-03 VZ=-4.917422891258909E-05
 LT= 1.724150935332329E-01 RG= 2.985274803730641E+01 RR=-1.547159385919738E-05
2462750.500000000 = A.D. 2030-Sep-06 00:00:00.0000 TDB 
 X = 2.925863701348201E+01 Y = 5.871745705299043E+00 Z =-7.952136339603995E-01
 VX=-6.377071695379416E-04 VY= 3.096348860794549E-03 VZ=-4.944697376972546E-05
 LT= 1.724142264955571E-01 RG= 2.985259791438651E+01 RR=-1.467706638077117E-05
2462760.500000000 = A.D. 2030-Sep-16 00:00:00.0000 TDB 
 X = 2.925223949398587E+01 Y = 5.902706435508415E+00 Z =-7.957036460130955E-01
 VX=-6.411583768221613E-04 VY= 3.096225585982231E-03 VZ=-4.871959823977635E-05
 LT= 1.724133559587398E-01 RG= 2.985244718560905E+01 RR=-1.475394414145749E-05
2462770.500000000 = A.D. 2030-Sep-26 00:00:00.0000 TDB 
 X = 2.924581041314941E+01 Y = 5.933660686454963E+00 Z =-7.961935586442691E-01
 VX=-6.450186783494860E-04 VY= 3.094963181984174E-03 VZ=-4.865220236460734E-05
 LT= 1.724124928028080E-01 RG= 2.985229773479231E+01 RR=-1.543921526383852E-05
2462780.500000000 = A.D. 2030-Oct-06 00:00:00.0000 TDB 
 X = 2.923934882501569E+01 Y = 5.964609318646090E+00 Z =-7.966817600838935E-01
 VX=-6.477207728581678E-04 VY= 3.094130478936581E-03 VZ=-4.918960695435649E-05
 LT= 1.724116324225445E-01 RG= 2.985214876456762E+01 RR=-1.488890035674807E-05
2462790.500000000 = A.D. 2030-Oct-16 00:00:00.0000 TDB 
 X = 2.923285362312719E+01 Y = 5.995550629318154E+00 Z =-7.971687814426419E-01
 VX=-6.507058042271302E-04 VY= 3.094170617213037E-03 VZ=-4.870470731186409E-05
 LT= 1.724107666874237E-01 RG= 2.985199886717814E+01 RR=-1.446821250345660E-05
2462800.500000000 = A.D. 2030-Oct-26 00:00:00.0000 TDB 
 X = 2.922632643368003E+01 Y = 6.026484688104627E+00 Z =-7.976559150348282E-01
 VX=-6.546776636872217E-04 VY= 3.093249142747175E-03 VZ=-4.822702027735220E-05
 LT= 1.724099050682126E-01 RG= 2.985184968243632E+01 RR=-1.520629205035377E-05
2462810.500000000 = A.D. 2030-Nov-05 00:00:00.0000 TDB 
 X = 2.921976740667317E+01 Y = 6.057413066390207E+00 Z =-7.981418544569056E-01
 VX=-6.577737692873698E-04 VY= 3.092021815946306E-03 VZ=-4.876719467047236E-05
 LT= 1.724090500438164E-01 RG= 2.985170163955131E+01 RR=-1.512208789873016E-05
2462820.500000000 = A.D. 2030-Nov-15 00:00:00.0000 TDB 
 X = 2.921317484404738E+01 Y = 6.088334663354232E+00 Z =-7.986260882109101E-01
 VX=-6.604059225704217E-04 VY= 3.091930454899076E-03 VZ=-4.869050119238070E-05
 LT= 1.724081906600510E-01 RG= 2.985155284186494E+01 RR=-1.436979900588602E-05
2462830.500000000 = A.D. 2030-Nov-25 00:00:00.0000 TDB 
 X = 2.920654963081759E+01 Y = 6.119248477118028E+00 Z =-7.991102275802290E-01
 VX=-6.641898240853086E-04 VY= 3.091455473286425E-03 VZ=-4.796517984573552E-05
 LT= 1.724073309869570E-01 RG= 2.985140399408285E+01 RR=-1.483948288498512E-05
2462840.500000000 = A.D. 2030-Dec-05 00:00:00.0000 TDB 
 X = 2.919989295274139E+01 Y = 6.150156119011262E+00 Z =-7.995938177882801E-01
 VX=-6.677459650914284E-04 VY= 3.090065246668544E-03 VZ=-4.824499082477256E-05
 LT= 1.724064795563190E-01 RG= 2.985125657343779E+01 RR=-1.524728507926069E-05
2462850.500000000 = A.D. 2030-Dec-15 00:00:00.0000 TDB 
 X = 2.919320323276634E+01 Y = 6.181057535959162E+00 Z =-8.000755184097850E-01
 VX=-6.702850872700481E-04 VY= 3.089597999484409E-03 VZ=-4.857142101591844E-05
 LT= 1.724056272004377E-01 RG= 2.985110899259181E+01 RR=-1.446931080609318E-05
2462860.500000000 = A.D. 2030-Dec-25 00:00:00.0000 TDB 
 X = 2.918648024807058E+01 Y = 6.211951058500261E+00 Z =-8.005565854671666E-01
 VX=-6.736592932458009E-04 VY= 3.089484181001632E-03 VZ=-4.786464319790686E-05
 LT= 1.724047708652085E-01 RG= 2.985096072274311E+01 RR=-1.446187198266047E-05
2462870.500000000 = A.D. 2031-Jan-04 00:00:00.0000 TDB 
 X = 2.917972572726803E+01 Y = 6.242837650092927E+00 Z =-8.010376058581853E-01
 VX=-6.775483756539216E-04 VY= 3.088226597912184E-03 VZ=-4.772979037670429E-05
 LT= 1.724039215525213E-01 RG= 2.985081366880984E+01 RR=-1.518032771531576E-05
2462880.500000000 = A.D. 2031-Jan-14 00:00:00.0000 TDB 
 X = 2.917293887615602E+01 Y = 6.273718313473213E+00 Z =-8.015169706786134E-01
 VX=-6.802922282076697E-04 VY= 3.087291761853343E-03 VZ=-4.828555621522210E-05
 LT= 1.724030757467164E-01 RG= 2.985066722207445E+01 RR=-1.469391052614424E-05
2462890.500000000 = A.D. 2031-Jan-24 00:00:00.0000 TDB 
 X = 2.916611846049188E+01 Y = 6.304591394662712E+00 Z =-8.019950550255243E-01
 VX=-6.832053775381490E-04 VY= 3.087298493118926E-03 VZ=-4.785568735102443E-05
 LT= 1.724022245441792E-01 RG= 2.985051984092381E+01 RR=-1.420120786166204E-05
2462900.500000000 = A.D. 2031-Feb-03 00:00:00.0000 TDB 
 X = 2.915926603223877E+01 Y = 6.335456791980405E+00 Z =-8.024732417963760E-01
 VX=-6.871603497339232E-04 VY= 3.086409419231015E-03 VZ=-4.732525772145345E-05
 LT= 1.724013767874201E-01 RG= 2.985037305639116E+01 RR=-1.491775908376267E-05
2462910.500000000 = A.D. 2031-Feb-13 00:00:00.0000 TDB 
 X = 2.915238191458868E+01 Y = 6.366316130803833E+00 Z =-8.029503263877573E-01
 VX=-6.903201596002780E-04 VY= 3.085106352896366E-03 VZ=-4.784055564141085E-05
 LT= 1.724005361041046E-01 RG= 2.985022749658730E+01 RR=-1.491784297461932E-05
2462920.500000000 = A.D. 2031-Feb-23 00:00:00.0000 TDB 
 X = 2.914546438093092E+01 Y = 6.397168449457880E+00 Z =-8.034256457835427E-01
 VX=-6.929126591789556E-04 VY= 3.084938236819518E-03 VZ=-4.783007864806191E-05
 LT= 1.723996914820772E-01 RG= 2.985008125481663E+01 RR=-1.413610082533867E-05
2462930.500000000 = A.D. 2031-Mar-05 00:00:00.0000 TDB 
 X = 2.913851416116887E+01 Y = 6.428012608863632E+00 Z =-8.039008002224844E-01
 VX=-6.966381392053993E-04 VY= 3.084495274465880E-03 VZ=-4.708856232996109E-05
 LT= 1.723988458765534E-01 RG= 2.984993484275882E+01 RR=-1.453843157606695E-05
2462940.500000000 = A.D. 2031-Mar-15 00:00:00.0000 TDB 
 X = 2.913153256347302E+01 Y = 6.458850163542016E+00 Z =-8.043754930866300E-01
 VX=-7.002503489165823E-04 VY= 3.083072937217965E-03 VZ=-4.731043418295103E-05
 LT= 1.723980085433370E-01 RG= 2.984978986300664E+01 RR=-1.501532659082319E-05
2462950.500000000 = A.D. 2031-Mar-25 00:00:00.0000 TDB 
 X = 2.912451809352233E+01 Y = 6.489681231825146E+00 Z =-8.048483003161664E-01
 VX=-7.027956338362364E-04 VY= 3.082503225883699E-03 VZ=-4.768633879180878E-05
 LT= 1.723971709973561E-01 RG= 2.984964484641543E+01 RR=-1.426283478814301E-05
2462960.500000000 = A.D. 2031-Apr-04 00:00:00.0000 TDB 
 X = 2.911747035749866E+01 Y = 6.520504098541554E+00 Z =-8.053203698783181E-01
 VX=-7.060913234450738E-04 VY= 3.082393243746667E-03 VZ=-4.700646090216065E-05
 LT= 1.723963290520761E-01 RG= 2.984949906810919E+01 RR=-1.417042676282308E-05
